NORAD_CAT_ID,OBJECT_NAME,OBJECT_TYPE,EPOCH,MEAN_MOTION,ECCENTRICITY,INCLINATION,RA_OF_ASC_NODE,ARG_OF_PERICENTER,MEAN_ANOMALY,BSTAR,MEAN_MOTION_DOT,MEAN_MOTION_DDOT,TLE_LINE0,TLE_LINE1,TLE_LINE2,SEMIMAJOR_AXIS,PERIOD,APOGEE,PERIGEE,DECAYED
53024.0,STARLINK-4289,PAYLOAD,2022-07-12 16:00:00,15.88338498,0.0032343,53.218,354.5783,56.6022,174.7283,-0.0040123,-0.01183774,0.00040144,0 STARLINK-4289,1 53024U 22076AQ  22193.66667824 -.01183774  40144-3 -40123-2 0  9994,2 53024  53.2180 354.5783 0032343  56.6022 174.7283 15.88338498  1309,6685.078,90.661,328.564,285.321,0.0
53024.0,STARLINK-4289,PAYLOAD,2022-07-13 04:00:00,15.87205265,0.0028005,53.2175,352.0496,56.0512,154.9075,-0.0043318,-0.0119334,0.00040312,0 STARLINK-4289,1 53024U 22076AQ  22194.16667824 -.01193340  40312-3 -43318-2 0  9996,2 53024  53.2175 352.0496 0028005  56.0512 154.9075 15.87205265  1375,6688.259,90.726,328.855,291.394,0.0
53024.0,STARLINK-4289,PAYLOAD,2022-07-13 14:00:01,15.86228019,0.0024303,53.2177,349.9464,54.79600000000001,17.6289,-0.0043586,-0.01135152,0.00036484,0 STARLINK-4289,1 53024U 22076AQ  22194.58334491 -.01135152  36484-3 -43586-2 0  9992,2 53024  53.2177 349.9464 0024303  54.7960  17.6289 15.86228019  1302,6691.005999999999,90.781,329.13199999999995,296.61,0.0
53024.0,STARLINK-4289,PAYLOAD,2022-07-13 20:00:01,15.85657958,0.0021357,53.2177,348.6869,56.2211,4.3929,-0.004504,-0.0102088,0.0,0 STARLINK-4289,1 53024U 22076AQ  22194.83334491 -.01020880  00000-0 -45040-2 0  9990,2 53024  53.2177 348.6869 0021357  56.2211   4.3929 15.85657958  1489,6692.61,90.814,328.76800000000014,300.181,0.0
53024.0,STARLINK-4289,PAYLOAD,2022-07-13 22:00:00,15.8548196,0.0020647,53.2173,348.2668,56.1003,120.4579,-0.0046631,-0.01043576,0.0,0 STARLINK-4289,1 53024U 22076AQ  22194.91667824 -.01043576  00000-0 -46631-2 0  9992,2 53024  53.2173 348.2668 0020647  56.1003 120.4579 15.85481960  1307,6693.105,90.824,328.789,301.151,0.0
53024.0,STARLINK-4289,PAYLOAD,2022-07-14 12:00:00,15.84172074,0.0015557,53.2175,345.3285,53.5979,213.0013,-0.005181,-0.01073392,0.0,0 STARLINK-4289,1 53024U 22076AQ  22195.50001157 -.01073392  00000-0 -51810-2 0  9993,2 53024  53.2175 345.3285 0015557  53.5979 213.0013 15.84172074  1594,6696.794,90.899,329.077,308.241,0.0
53024.0,STARLINK-4289,PAYLOAD,2022-07-14 14:00:01,15.8396003,0.001478,53.2175,344.91,52.2018,329.8976,-0.0050372,-0.01036045,0.0,0 STARLINK-4289,1 53024U 22076AQ  22195.58334491 -.01036045  00000-0 -50372-2 0  9997,2 53024  53.2175 344.9100 0014780  52.2018 329.8976 15.83960030  1301,6697.392,90.911,329.155,309.358,0.0
53024.0,STARLINK-4289,PAYLOAD,2022-07-14 22:00:00,15.83193887,0.0012001,53.2172,343.236,52.0993,71.4023,-0.0051706,-0.01022407,0.0,0 STARLINK-4289,1 53024U 22076AQ  22195.91667824 -.01022407  00000-0 -51706-2 0  9992,2 53024  53.2172 343.2360 0012001  52.0993  71.4023 15.83193887  1303,6699.552,90.955,329.457,313.377,0.0
53024.0,STARLINK-4289,PAYLOAD,2022-07-15 04:00:00,15.82622243,0.0010396,53.2176,341.9792,50.0401,58.9151,-0.0053023,-0.01018587,0.0,0 STARLINK-4289,1 53024U 22076AQ  22196.16667824 -.01018587  00000-0 -53023-2 0  9998,2 53024  53.2176 341.9792 0010396  50.0401  58.9151 15.82622243  1694,6701.165,90.988,329.997,316.064,0.0
53024.0,STARLINK-4289,PAYLOAD,2022-07-15 12:00:00,15.81884987,0.0007249,53.2179,340.3076,44.5256,164.2252,-0.0057242,-0.01053845,0.0,0 STARLINK-4289,1 53024U 22076AQ  22196.50001157 -.01053845  00000-0 -57242-2 0  9990,2 53024  53.2179 340.3076 0007249  44.5256 164.2252 15.81884987  1747,6703.246999999999,91.031,329.971,320.253,0.0
53024.0,STARLINK-4289,PAYLOAD,2022-07-15 14:00:01,15.81696929,0.0006461,53.2176,339.8906,40.7423,282.816,-0.0058006,-0.01057267,0.0,0 STARLINK-4289,1 53024U 22076AQ  22196.58334491 -.01057267  00000-0 -58006-2 0  9999,2 53024  53.2176 339.8906 0006461  40.7423 282.8160 15.81696929  1302,6703.779,91.041,329.975,321.312,0.0
53024.0,STARLINK-4289,PAYLOAD,2022-07-15 22:00:00,15.80921389,0.0004249,53.2171,338.2218,23.9523,38.2738,-0.0058428,-0.01028644,0.0,0 STARLINK-4289,1 53024U 22076AQ  22196.91667824 -.01028644  00000-0 -58428-2 0  9990,2 53024  53.2171 338.2218 0004249  23.9523  38.2738 15.80921389  1306,6705.971,91.086,330.685,324.986,0.0
53024.0,STARLINK-4289,PAYLOAD,2022-07-16 12:00:00,15.79599227,0.0003434,53.2175,335.3035,6.6683,136.0197,-0.0062891,-0.01039428,0.0,0 STARLINK-4289,1 53024U 22076AQ  22197.50001157 -.01039428  00000-0 -62891-2 0  9998,2 53024  53.2175 335.3035 0003434   6.6683 136.0197 15.79599227  1907,6709.712,91.162,333.881,329.273,0.0
53024.0,STARLINK-4289,PAYLOAD,2022-07-16 14:00:01,15.79409969,0.0003309,53.2174,334.8881,6.619,250.1921,-0.0063518,-0.0105836,0.0,0 STARLINK-4289,1 53024U 22076AQ  22197.58334491 -.01058360  00000-0 -63518-2 0  9999,2 53024  53.2174 334.8881 0003309   6.6190 250.1921 15.79409969  1303,6710.248000000001,91.173,334.334,329.89300000000014,0.0
53024.0,STARLINK-4289,PAYLOAD,2022-07-16 22:00:00,15.78652137,0.0003029,53.2172,333.2247,5.8893,346.8454,-0.0065838,-0.01059383,0.0,0 STARLINK-4289,1 53024U 22076AQ  22197.91667824 -.01059383  00000-0 -65838-2 0  9998,2 53024  53.2172 333.2247 0003029   5.8893 346.8454 15.78652137  1300,6712.396,91.217,336.2940000000001,332.227,0.0
53024.0,STARLINK-4289,PAYLOAD,2022-07-17 04:00:01,15.78080825,0.0002873,53.2176,331.9763,6.8473,327.2998,-0.0067474999999999,-0.01057975,0.0,0 STARLINK-4289,1 53024U 22076AQ  22198.16668981 -.01057975  00000-0 -67475-2 0  9995,2 53024  53.2176 331.9763 0002873   6.8473 327.2998 15.78080825  2017,6714.016,91.25,337.81,333.952,0.0
53024.0,STARLINK-4289,PAYLOAD,2022-07-17 14:00:01,15.7712915,0.0003488,53.2176,329.9022,6.8853,174.9628,-0.0070084999999999,-0.01053581,0.0,0 STARLINK-4289,1 53024U 22076AQ  22198.58334491 -.01053581  00000-0 -70085-2 0  9997,2 53024  53.2176 329.9022 0003488   6.8853 174.9628 15.77129150  1309,6716.715999999999,91.305,340.9240000000001,336.23800000000006,0.0
53024.0,STARLINK-4289,PAYLOAD,2022-07-17 20:00:01,15.76557403,0.0003558,53.2173,328.6592,5.9938,155.83,-0.0071569,-0.01049221,0.0,0 STARLINK-4289,1 53024U 22076AQ  22198.83334491 -.01049221  00000-0 -71569-2 0  9999,2 53024  53.2173 328.6592 0003558   5.9938 155.8300 15.76557403  2116,6718.34,91.338,342.595,337.815,0.0
53024.0,STARLINK-4289,PAYLOAD,2022-07-17 22:00:00,15.76374486,0.0003376,53.2171,328.2442,4.9679,270.0649,-0.0073025,-0.01060531,0.0,0 STARLINK-4289,1 53024U 22076AQ  22198.91667824 -.01060531  00000-0 -73025-2 0  9993,2 53024  53.2171 328.2442 0003376   4.9679 270.0649 15.76374486  1307,6718.86,91.349,342.99300000000005,338.456,0.0
53024.0,STARLINK-4289,PAYLOAD,2022-07-18 12:00:00,15.75043307,0.0001965,53.2175,325.346,15.5308,330.384,-0.0077197,-0.01056635,0.0,0 STARLINK-4289,1 53024U 22076AQ  22199.50001157 -.01056635  00000-0 -77197-2 0  9994,2 53024  53.2175 325.3460 0001965  15.5308 330.3840 15.75043307  2227,6722.645,91.426,345.831,343.189,0.0
53024.0,STARLINK-4289,PAYLOAD,2022-07-18 14:00:01,15.74863493,0.0002346,53.2173,324.9333,322.6646,136.001,-0.0079169,-0.01073417,0.0,0 STARLINK-4289,1 53024U 22076AQ  22199.58334491 -.01073417  00000-0 -79169-2 0  9990,2 53024  53.2173 324.9333 0002346 322.6646 136.0010 15.74863493  1303,6723.156999999997,91.436,346.599,343.444,0.0
53024.0,STARLINK-4289,PAYLOAD,2022-07-18 22:00:00,15.74000288,0.0002298,53.2172,323.2807,6.4747,182.6607,-0.0061035,-0.00807133,0.0,0 STARLINK-4289,1 53024U 22076AQ  22199.91667824 -.00807133  00000-0 -61035-2 0  9998,2 53024  53.2172 323.2807 0002298   6.4747 182.6607 15.74000288  1309,6725.614000000001,91.487,349.025,345.934,0.0
53024.0,STARLINK-4289,PAYLOAD,2022-07-19 04:00:00,15.73427942,9.14e-05,53.2175,322.0408,114.1941,52.1751,-0.0023133,-0.00316424,0.0,0 STARLINK-4289,1 53024U 22076AQ  22200.16667824 -.00316424  00000-0 -23133-2 0  9993,2 53024  53.2175 322.0408 0000914 114.1941  52.1751 15.73427942  2325,6727.245,91.52,349.725,348.496,0.0
53024.0,STARLINK-4289,PAYLOAD,2022-07-19 12:00:00,15.73203448,0.0001324,53.2177,320.3922,53.1521,202.2777,1.3602e-05,1.29e-05,0.0,0 STARLINK-4289,1 53024U 22076AQ  22200.50001157  .00001290  00000-0  13602-4 0  9994,2 53024  53.2177 320.3922 0001324  53.1521 202.2777 15.73203448  2386,6727.885,91.533,350.641,348.86,0.0
53024.0,STARLINK-4289,PAYLOAD,2022-07-19 14:00:01,15.73204906,0.0001374,53.2175,319.9802,52.1017,315.5608,-6.3014e-06,-1.504e-05,0.0,0 STARLINK-4289,1 53024U 22076AQ  22200.58334491 -.00001504  00000-0 -63014-5 0  9995,2 53024  53.2175 319.9802 0001374  52.1017 315.5608 15.73204906  1301,6727.880999999999,91.533,350.671,348.82199999999995,0.0
53024.0,STARLINK-4289,PAYLOAD,2022-07-19 22:00:00,15.73205629,0.0001254,53.2172,318.3305,57.8125,38.7843,-1.5024e-05,-2.728e-05,0.0,0 STARLINK-4289,1 53024U 22076AQ  22200.91667824 -.00002728  00000-0 -15024-4 0  9997,2 53024  53.2172 318.3305 0001254  57.8125  38.7843 15.73205629  1306,6727.879,91.533,350.588,348.9,0.0
53024.0,STARLINK-4289,PAYLOAD,2022-07-20 14:00:01,15.73178251,0.0001482,53.2189,315.0371,58.5661,216.0708,0.00021298,0.00029347,0.0,0 STARLINK-4289,1 53024U 22076AQ  22201.58334491  .00029347  00000-0  21298-3 0  9995,2 53024  53.2189 315.0371 0001482  58.5661 216.0708 15.73178251  1308,6727.956999999999,91.534,350.819,348.825,0.0
53024.0,STARLINK-4289,PAYLOAD,2022-07-20 22:00:01,15.73179602,0.0001375,53.219,313.3874,53.167,310.4255,-0.0002443,-0.00034734,0.0,0 STARLINK-4289,1 53024U 22076AQ  22201.91668981 -.00034734  00000-0 -24430-3 0  9995,2 53024  53.2190 313.3874 0001375  53.1670 310.4255 15.73179602  1308,6727.953,91.534,350.74300000000005,348.89300000000014,0.0
53024.0,STARLINK-4289,PAYLOAD,2022-07-21 04:00:00,15.73143806,0.0001295,53.219,312.149,57.4253,282.7626,6.9866e-05,9.173e-05,0.0,0 STARLINK-4289,1 53024U 22076AQ  22202.16667824  .00009173  00000-0  69866-4 0  9998,2 53024  53.2190 312.1490 0001295  57.4253 282.7626 15.73143806  2642,6728.055,91.536,350.792,349.0490000000001,0.0
